{"type": "FeatureCollection", "features": [ {"type": "Feature", "properties": {"norad_id": 34833, "name": "IRIDIUM 33 DEB", "group": "iridium-33-debris", "lat": -18.237750222450224, "lon": 52.53623203499636, "alt_km": 734.1126433307818, "timestamp": "2025-12-06T09:34:17.299552+00:00", "meta": {"OBJECT_NAME": "IRIDIUM 33 DEB", "OBJECT_ID": "1997-051MH", "EPOCH": "2025-12-04T11:26:09.511872", "MEAN_MOTION": 14.52297117, "ECCENTRICITY": 0.00216, "INCLINATION": 86.3942, "RA_OF_ASC_NODE": 54.5547, "ARG_OF_PERICENTER": 123.9185, "MEAN_ANOMALY": 254.0843, "EPHEMERIS_TYPE": 0, "CLASSIFICATION_TYPE": "U", "NORAD_CAT_ID": 34833, "ELEMENT_SET_NO": 999, "REV_AT_EPOCH": 87595, "BSTAR": 0.0019345, "MEAN_MOTION_DOT": 7.908e-05, "MEAN_MOTION_DDOT": 0}, "tle": {"line1": "1 34833U 97051MH  25338.47649898  .00007908  00000+0  19345-2 0  9996", "line2": "2 34833  86.3942  54.5547 0021600 123.9185 254.0843 14.52297117875952"}}, "geometry": {"type": "Point", "coordinates": [52.53623203499636, -18.237750222450224]}}, {"type": "Feature", "properties": {"norad_id": 34870, "name": "IRIDIUM 33 DEB", "group": "iridium-33-debris", "lat": 52.7615276421165, "lon": 132.11837922674246, "alt_km": 634.810863012658, "timestamp": "2025-12-06T09:34:17.299561+00:00", "meta": {"OBJECT_NAME": "IRIDIUM 33 DEB", "OBJECT_ID": "1997-051MQ", "EPOCH": "2025-12-03T16:42:25.585344", "MEAN_MOTION": 14.7612151, "ECCENTRICITY": 0.00150063, "INCLINATION": 86.3102, "RA_OF_ASC_NODE": 318.2257, "ARG_OF_PERICENTER": 217.2591, "MEAN_ANOMALY": 316.7951, "EPHEMERIS_TYPE": 0, "CLASSIFICATION_TYPE": "U", "NORAD_CAT_ID": 34870, "ELEMENT_SET_NO": 999, "REV_AT_EPOCH": 88777, "BSTAR": 0.002200073, "MEAN_MOTION_DOT": 0.00015256, "MEAN_MOTION_DDOT": 0}, "tle": {"line1": "1 34870U 97051MQ  25337.69612946  .00015256  00000+0  22001-2 0  9992", "line2": "2 34870  86.3102 318.2257 0015006 217.2591 316.7951 14.76121510887778"}}, "geometry": {"type": "Point", "coordinates": [132.11837922674246, 52.7615276421165]}}, {"type": "Feature", "properties": {"norad_id": 34896, "name": "IRIDIUM 33 DEB", "group": "iridium-33-debris", "lat": -18.686097594416395, "lon": 150.7739290325214, "alt_km": 665.5201992149005, "timestamp": "2025-12-06T09:34:17.299572+00:00", "meta": {"OBJECT_NAME": "IRIDIUM 33 DEB", "OBJECT_ID": "1997-051MY", "EPOCH": "2025-12-05T17:05:39.506784", "MEAN_MOTION": 14.66165825, "ECCENTRICITY": 0.00238087, "INCLINATION": 86.3279, "RA_OF_ASC_NODE": 329.8372, "ARG_OF_PERICENTER": 240.6117, "MEAN_ANOMALY": 296.7708, "EPHEMERIS_TYPE": 0, "CLASSIFICATION_TYPE": "U", "NORAD_CAT_ID": 34896, "ELEMENT_SET_NO": 999, "REV_AT_EPOCH": 87516, "BSTAR": 0.001793551, "MEAN_MOTION_DOT": 9.929e-05, "MEAN_MOTION_DDOT": 0}, "tle": {"line1": "1 34896U 97051MY  25339.71226281  .00009929  00000+0  17936-2 0  9999", "line2": "2 34896  86.3279 329.8372 0023808 240.6117 296.7708 14.66165825875163"}}, "geometry": {"type": "Point", "coordinates": [150.7739290325214, -18.686097594416395]}}, {"type": "Feature", "properties": {"norad_id": 34926, "name": "IRIDIUM 33 DEB", "group": "iridium-33-debris", "lat": -19.08657878341889, "lon": -167.4456735951869, "alt_km": 740.767429892433, "timestamp": "2025-12-06T09:34:17.299582+00:00", "meta": {"OBJECT_NAME": "IRIDIUM 33 DEB", "OBJECT_ID": "1997-051NF", "EPOCH": "2025-12-04T20:34:08.584320", "MEAN_MOTION": 14.53864036, "ECCENTRICITY": 0.0076536, "INCLINATION": 86.1319, "RA_OF_ASC_NODE": 11.927, "ARG_OF_PERICENTER": 319.676, "MEAN_ANOMALY": 95.4397, "EPHEMERIS_TYPE": 0, "CLASSIFICATION_TYPE": "U", "NORAD_CAT_ID": 34926, "ELEMENT_SET_NO": 999, "REV_AT_EPOCH": 86342, "BSTAR": 0.01059, "MEAN_MOTION_DOT": 0.00046543, "MEAN_MOTION_DDOT": 0}, "tle": {"line1": "1 34926U 97051NF  25338.85704380  .00046543  00000+0  10590-1 0  9999", "line2": "2 34926  86.1319  11.9270 0076536 319.6760  95.4397 14.53864036863423"}}, "geometry": {"type": "Point", "coordinates": [-167.4456735951869, -19.08657878341889]}}, {"type": "Feature", "properties": {"norad_id": 34985, "name": "IRIDIUM 33 DEB", "group": "iridium-33-debris", "lat": -62.6338669447009, "lon": -113.37102567199021, "alt_km": 745.0783674028171, "timestamp": "2025-12-06T09:34:17.299592+00:00", "meta": {"OBJECT_NAME": "IRIDIUM 33 DEB", "OBJECT_ID": "1997-051NR", "EPOCH": "2025-12-03T17:45:54.671040", "MEAN_MOTION": 14.41942363, "ECCENTRICITY": 0.0019945, "INCLINATION": 86.3703, "RA_OF_ASC_NODE": 60.7182, "ARG_OF_PERICENTER": 251.1586, "MEAN_ANOMALY": 239.5788, "EPHEMERIS_TYPE": 0, "CLASSIFICATION_TYPE": "U", "NORAD_CAT_ID": 34985, "ELEMENT_SET_NO": 999, "REV_AT_EPOCH": 87045, "BSTAR": 0.0011135704, "MEAN_MOTION_DOT": 3.675e-05, "MEAN_MOTION_DDOT": 0}, "tle": {"line1": "1 34985U 97051NR  25337.74021610  .00003675  00000+0  11136-2 0  9996", "line2": "2 34985  86.3703  60.7182 0019945 251.1586 239.5788 14.41942363870451"}}, "geometry": {"type": "Point", "coordinates": [-113.37102567199021, -62.6338669447009]}}, {"type": "Feature", "properties": {"norad_id": 35051, "name": "IRIDIUM 33 DEB", "group": "iridium-33-debris", "lat": 47.89961028890991, "lon": 15.705281801176024, "alt_km": 725.6318409930391, "timestamp": "2025-12-06T09:34:17.299602+00:00", "meta": {"OBJECT_NAME": "IRIDIUM 33 DEB", "OBJECT_ID": "1997-051NX", "EPOCH": "2025-12-05T08:27:53.565120", "MEAN_MOTION": 14.47546386, "ECCENTRICITY": 0.00106363, "INCLINATION": 86.3242, "RA_OF_ASC_NODE": 12.0813, "ARG_OF_PERICENTER": 111.2483, "MEAN_ANOMALY": 248.9857, "EPHEMERIS_TYPE": 0, "CLASSIFICATION_TYPE": "U", "NORAD_CAT_ID": 35051, "ELEMENT_SET_NO": 999, "REV_AT_EPOCH": 86889, "BSTAR": 0.0012192117, "MEAN_MOTION_DOT": 4.506e-05, "MEAN_MOTION_DDOT": 0}, "tle": {"line1": "1 35051U 97051NX  25339.35270330  .00004506  00000+0  12192-2 0  9992", "line2": "2 35051  86.3242  12.0813 0010636 111.2483 248.9857 14.47546386868892"}}, "geometry": {"type": "Point", "coordinates": [15.705281801176024, 47.89961028890991]}}, {"type": "Feature", "properties": {"norad_id": 35052, "name": "IRIDIUM 33 DEB", "group": "iridium-33-debris", "lat": 44.22319918507594, "lon": 26.774617305840213, "alt_km": 754.6214582031798, "timestamp": "2025-12-06T09:34:17.299612+00:00", "meta": {"OBJECT_NAME": "IRIDIUM 33 DEB", "OBJECT_ID": "1997-051NY", "EPOCH": "2025-12-04T20:38:14.764704", "MEAN_MOTION": 14.38478571, "ECCENTRICITY": 0.0013621, "INCLINATION": 86.3316, "RA_OF_ASC_NODE": 23.8542, "ARG_OF_PERICENTER": 106.9628, "MEAN_ANOMALY": 253.3064, "EPHEMERIS_TYPE": 0, "CLASSIFICATION_TYPE": "U", "NORAD_CAT_ID": 35052, "ELEMENT_SET_NO": 999, "REV_AT_EPOCH": 87162, "BSTAR": 0.00036777, "MEAN_MOTION_DOT": 1.143e-05, "MEAN_MOTION_DDOT": 0}, "tle": {"line1": "1 35052U 97051NY  25338.85989311  .00001143  00000+0  36777-3 0  9993", "line2": "2 35052  86.3316  23.8542 0013621 106.9628 253.3064 14.38478571871628"}}, "geometry": {"type": "Point", "coordinates": [26.774617305840213, 44.22319918507594]}}, {"type": "Feature", "properties": {"norad_id": 35080, "name": "IRIDIUM 33 DEB", "group": "iridium-33-debris", "lat": -49.43485193893383, "lon": -120.15011675551787, "alt_km": 582.549149589423, "timestamp": "2025-12-06T09:34:17.299622+00:00", "meta": {"OBJECT_NAME": "IRIDIUM 33 DEB", "OBJECT_ID": "1997-051PF", "EPOCH": "2025-12-05T22:50:10.565088", "MEAN_MOTION": 14.84725398, "ECCENTRICITY": 0.00625763, "INCLINATION": 86.2064, "RA_OF_ASC_NODE": 55.6178, "ARG_OF_PERICENTER": 202.8962, "MEAN_ANOMALY": 156.947, "EPHEMERIS_TYPE": 0, "CLASSIFICATION_TYPE": "U", "NORAD_CAT_ID": 35080, "ELEMENT_SET_NO": 999, "REV_AT_EPOCH": 69587, "BSTAR": 0.011235471, "MEAN_MOTION_DOT": 0.000998, "MEAN_MOTION_DDOT": 0}, "tle": {"line1": "1 35080U 97051PF  25339.95151117  .00099800  00000+0  11235-1 0  9998", "line2": "2 35080  86.2064  55.6178 0062576 202.8962 156.9470 14.84725398695879"}}, "geometry": {"type": "Point", "coordinates": [-120.15011675551787, -49.43485193893383]}}, {"type": "Feature", "properties": {"norad_id": 35297, "name": "IRIDIUM 33 DEB", "group": "iridium-33-debris", "lat": 19.89814400580975, "lon": -115.84651988342522, "alt_km": 729.7429634638183, "timestamp": "2025-12-06T09:34:17.299632+00:00", "meta": {"OBJECT_NAME": "IRIDIUM 33 DEB", "OBJECT_ID": "1997-051PM", "EPOCH": "2025-12-05T12:53:30.898752", "MEAN_MOTION": 14.45104988, "ECCENTRICITY": 0.00169559, "INCLINATION": 86.3863, "RA_OF_ASC_NODE": 65.8318, "ARG_OF_PERICENTER": 162.4082, "MEAN_ANOMALY": 197.7711, "EPHEMERIS_TYPE": 0, "CLASSIFICATION_TYPE": "U", "NORAD_CAT_ID": 35297, "ELEMENT_SET_NO": 999, "REV_AT_EPOCH": 70322, "BSTAR": 0.001371701, "MEAN_MOTION_DOT": 4.822e-05, "MEAN_MOTION_DDOT": 0}, "tle": {"line1": "1 35297U 97051PM  25339.53716318  .00004822  00000+0  13717-2 0  9990", "line2": "2 35297  86.3863  65.8318 0016955 162.4082 197.7711 14.45104988703223"}}, "geometry": {"type": "Point", "coordinates": [-115.84651988342522, 19.89814400580975]}}, {"type": "Feature", "properties": {"norad_id": 35299, "name": "IRIDIUM 33 DEB", "group": "iridium-33-debris", "lat": -11.462183591944347, "lon": -143.29886614195948, "alt_km": 744.9817021353047, "timestamp": "2025-12-06T09:34:17.299642+00:00", "meta": {"OBJECT_NAME": "IRIDIUM 33 DEB", "OBJECT_ID": "1997-051PP", "EPOCH": "2025-12-04T22:15:32.154336", "MEAN_MOTION": 14.40800476, "ECCENTRICITY": 0.0058727, "INCLINATION": 86.2893, "RA_OF_ASC_NODE": 36.5873, "ARG_OF_PERICENTER": 127.2291, "MEAN_ANOMALY": 356.5642, "EPHEMERIS_TYPE": 0, "CLASSIFICATION_TYPE": "U", "NORAD_CAT_ID": 35299, "ELEMENT_SET_NO": 999, "REV_AT_EPOCH": 86218, "BSTAR": 0.0017577, "MEAN_MOTION_DOT": 5.762e-05, "MEAN_MOTION_DDOT": 0}, "tle": {"line1": "1 35299U 97051PP  25338.92745549  .00005762  00000+0  17577-2 0  9994", "line2": "2 35299  86.2893  36.5873 0058727 127.2291 356.5642 14.40800476862181"}}, "geometry": {"type": "Point", "coordinates": [-143.29886614195948, -11.462183591944347]}}]}